[{"OBJECT_NAME":"XINGYUN-2 02","OBJECT_ID":"2020-028B","EPOCH":"2026-03-10T00:08:18.521088","MEAN_MOTION":15.11086378,"ECCENTRICITY":0.0009258,"INCLINATION":97.5114,"RA_OF_ASC_NODE":76.7595,"ARG_OF_PERICENTER":249.9829,"MEAN_ANOMALY":110.0404,"EPHEMERIS_TYPE":0,"CLASSIFICATION_TYPE":"U","NORAD_CAT_ID":45603,"ELEMENT_SET_NO":999,"REV_AT_EPOCH":31985,"BSTAR":0.00013296102,"MEAN_MOTION_DOT":2.163e-5,"MEAN_MOTION_DDOT":0},{"OBJECT_NAME":"STARLINK-4593","OBJECT_ID":"2022-104AX","EPOCH":"2026-03-09T17:56:11.141952","MEAN_MOTION":15.08839163,"ECCENTRICITY":0.00011977,"INCLINATION":53.2173,"RA_OF_ASC_NODE":223.8871,"ARG_OF_PERICENTER":90.7205,"MEAN_ANOMALY":269.3924,"EPHEMERIS_TYPE":0,"CLASSIFICATION_TYPE":"U","NORAD_CAT_ID":53633,"ELEMENT_SET_NO":999,"REV_AT_EPOCH":19590,"BSTAR":4.0774444e-5,"MEAN_MOTION_DOT":3.61e-6,"MEAN_MOTION_DDOT":0}]
